GPS BIIR-2  (PRN 13)    
1 24876U 97035A   16343.11062384  .00000017  00000-0  00000+0 0  9990
2 24876  55.5984 234.6367 0038338 108.6815 251.8050  2.00561731141990
GPS BIIR-3  (PRN 11)    
1 25933U 99055A   16343.44482883 -.00000023  00000-0  00000+0 0  9993
2 25933  51.5029  86.0048 0165115  91.9546  78.4770  2.00560867125819
GPS BIIR-4  (PRN 20)    
1 26360U 00025A   16343.45210413  .00000109  00000-0  00000+0 0  9990
2 26360  53.0909 162.8470 0045387  86.2253 188.4500  2.00570274121519
GPS BIIR-5  (PRN 28)    
1 26407U 00040A   16343.35842985 -.00000036  00000-0  00000+0 0  9993
2 26407  56.6790 352.5875 0203327 268.6985 221.0453  2.00568338120184
GPS BIIR-6  (PRN 14)    
1 26605U 00071A   16343.46533116  .00000022  00000-0  00000+0 0  9996
2 26605  55.1687 232.4273 0088663 248.9557 224.7079  2.00571007117784
GPS BIIR-7  (PRN 18)    
1 26690U 01004A   16343.45064213  .00000109  00000-0  00000+0 0  9999
2 26690  53.0152 165.8007 0175302 254.3451 325.7243  2.00556103116196
GPS BIIR-8  (PRN 16)    
1 27663U 03005A   16343.26941567 -.00000036  00000-0  00000+0 0  9998
2 27663  56.7504 352.3192 0087661  20.2942 164.6293  2.00571405101541
GPS BIIR-9  (PRN 21)    
1 27704U 03010A   16343.45456171  .00000021  00000-0  00000+0 0  9996
2 27704  53.7511 106.1449 0237599 260.6270  21.8213  2.00550736100351
GPS BIIR-10 (PRN 22)    
1 28129U 03058A   16342.80896477  .00000106  00000-0  00000+0 0  9999
2 28129  52.8992 165.8408 0075084 255.0538 104.1548  2.00565369 95039
GPS BIIR-11 (PRN 19)    
1 28190U 04009A   16343.29809328 -.00000055  00000-0  00000+0 0  9991
2 28190  55.8961  53.4829 0100685  50.4940 307.0830  2.00567777 93227
GPS BIIR-12 (PRN 23)    
1 28361U 04023A   16343.33015648  .00000029  00000-0  00000+0 0  9996
2 28361  54.1474 227.7382 0112644 216.5117  79.5646  2.00574772 91303
GPS BIIR-13 (PRN 02)    
1 28474U 04045A   16343.49413865  .00000020  00000-0  00000+0 0  9996
2 28474  54.1355 105.5368 0164713 242.4729 172.9020  2.00561358 88670
GPS BIIRM-1 (PRN 17)    
1 28874U 05038A   16343.18444595 -.00000056  00000-0  00000+0 0  9993
2 28874  56.0577  50.7225 0117908 251.4592  40.9761  2.00551218 82074
GPS BIIRM-2 (PRN 31)    
1 29486U 06042A   16343.49501053 -.00000037  00000-0  00000+0 0  9995
2 29486  55.5228 289.9154 0085886 339.1879 103.1965  2.00571149 74792
GPS BIIRM-3 (PRN 12)    
1 29601U 06052A   16343.32681250 -.00000035  00000-0  00000+0 0  9993
2 29601  56.7223 351.2385 0059729  42.9338 317.5711  2.00570602 73707
GPS BIIRM-4 (PRN 15)    
1 32260U 07047A   16343.14063995  .00000033  00000-0  00000+0 0  9990
2 32260  53.2747 224.2630 0087710  29.8916 330.6864  2.00558373 67084
GPS BIIRM-5 (PRN 29)    
1 32384U 07062A   16343.38781324 -.00000056  00000-0  00000+0 0  9999
2 32384  56.1176  51.2832 0006004 328.6904 343.2124  2.00560009 65812
GPS BIIRM-6 (PRN 07)    
1 32711U 08012A   16343.54795210 -.00000038  00000-0  00000+0 0  9996
2 32711  55.2485 289.3284 0101818 211.3989 147.9948  2.00569910 64007
GPS BIIRM-8 (PRN 05)    
1 35752U 09043A   16343.08858311  .00000111  00000-0  00000+0 0  9991
2 35752  54.2345 167.2659 0047835  29.8559  24.5444  2.00566394 53587
GPS BIIF-1  (PRN 25)    
1 36585U 10022A   16343.11889656 -.00000036  00000-0  00000+0 0  9992
2 36585  56.0385 348.1971 0056139  41.3959 136.7834  2.00565103 47829
GPS BIIF-2  (PRN 01)    
1 37753U 11036A   16343.44170442  .00000029  00000-0  00000+0 0  9999
2 37753  55.3470 108.3879 0059215  30.3726 110.7341  2.00560622 39518
GPS BIIF-3  (PRN 24)    
1 38833U 12053A   16343.23547466 -.00000037  00000-0  00000+0 0  9990
2 38833  54.2777 286.4471 0050551  21.0666 339.1470  2.00558639 30589
GPS BIIF-4  (PRN 27)    
1 39166U 13023A   16343.09191379 -.00000057  00000-0  00000+0 0  9992
2 39166  55.7671  47.8023 0039428  13.8734 346.2805  2.00565696 26111
GPS BIIF-5  (PRN 30)    
1 39533U 14008A   16343.09284084 -.00000037  00000-0  00000+0 0  9998
2 39533  54.4334 291.7175 0023735 185.4565 174.5224  2.00555441 20489
GPS BIIF-6  (PRN 06)    
1 39741U 14026A   16343.37603014  .00000028  00000-0  00000+0 0  9997
2 39741  55.3356 107.9097 0006102 272.6108  87.3036  2.00574781 18764
GPS BIIF-7  (PRN 09)    
1 40105U 14045A   16343.46410512  .00000031  00000-0  00000+0 0  9997
2 40105  54.6689 227.5375 0005624 104.3581 255.7816  2.00556414 17212
GPS BIIF-8  (PRN 03)    
1 40294U 14068A   16343.33128133  .00000000  00000-0  10000-3 0  9993
2 40294  54.9788 168.0885 0002594  14.6491 345.4118  2.00574800 15438
GPS BIIF-9  (PRN 26)    
1 40534U 15013A   16342.97484667 -.00000039  00000-0  00000+0 0  9995
2 40534  54.9997 347.4922 0014257 339.4618  20.5150  2.00569694 12495
GPS BIIF-10  (PRN 08)   
1 40730U 15033A   16343.14018329 -.00000058  00000-0  00000+0 0  9994
2 40730  55.3027  47.5586 0023882 300.7948  59.0159  2.00577687 10256
GPS BIIF-11  (PRN 10)   
1 41019U 15062A   16342.18989787  .00000107  00000-0  00000+0 0  9999
2 41019  54.9902 167.9135 0020250 197.3124 162.6624  2.00562904  8052
GPS BIIF-12  (PRN 32)   
1 41328U 16007A   16342.77312443  .00000027  00000-0  00000+0 0  9997
2 41328  54.9294 227.7001 0007408 224.1795 135.8386  2.00563527  6124
